[{"OBJECT_NAME":"STARLINK-1361","OBJECT_ID":"2020-025AN","EPOCH":"2026-03-09T22:44:55.848768","MEAN_MOTION":15.47742463,"ECCENTRICITY":0.00077177,"INCLINATION":53.0509,"RA_OF_ASC_NODE":72.6747,"ARG_OF_PERICENTER":32.9629,"MEAN_ANOMALY":327.1858,"EPHEMERIS_TYPE":0,"CLASSIFICATION_TYPE":"U","NORAD_CAT_ID":45567,"ELEMENT_SET_NO":999,"REV_AT_EPOCH":32559,"BSTAR":0.0019136745,"MEAN_MOTION_DOT":0.00101742,"MEAN_MOTION_DDOT":0},{"OBJECT_NAME":"SITRO-AIS 40","OBJECT_ID":"2024-199AT","EPOCH":"2026-03-09T22:35:37.656384","MEAN_MOTION":15.51458954,"ECCENTRICITY":0.0006478,"INCLINATION":97.3071,"RA_OF_ASC_NODE":303.3931,"ARG_OF_PERICENTER":301.7881,"MEAN_ANOMALY":58.274,"EPHEMERIS_TYPE":0,"CLASSIFICATION_TYPE":"U","NORAD_CAT_ID":61776,"ELEMENT_SET_NO":999,"REV_AT_EPOCH":12219,"BSTAR":0.00081572905,"MEAN_MOTION_DOT":0.00048299,"MEAN_MOTION_DDOT":0}]
